{
  "type": "FeatureCollection",
  "features": [
    {
      "type": "Feature",
      "properties": {
        "norad_id": 67018,
        "name": "STARLINK-36106",
        "group": "last-30-days",
        "lat": 47.00192777644026,
        "lon": -48.58025100013595,
        "alt_km": 331.5363019260194,
        "timestamp": "2025-12-24T22:42:20.748427+00:00",
        "meta_object_name": "STARLINK-36106",
        "meta_object_id": "2025-293R",
        "meta_epoch": "2025-12-24T06:00:02.000160",
        "meta_mean_motion": 15.80947697,
        "meta_eccentricity": 0.00038533,
        "meta_inclination": 69.9919,
        "meta_ra_of_asc_node": 290.4009,
        "meta_arg_of_pericenter": 273.506,
        "meta_mean_anomaly": 140.3909,
        "meta_ephemeris_type": 0,
        "meta_classification_type": "U",
        "meta_norad_cat_id": 67018,
        "meta_element_set_no": 999,
        "meta_rev_at_epoch": 207,
        "meta_bstar": -0.0092885249,
        "meta_mean_motion_dot": -0.01583516,
        "meta_mean_motion_ddot": 0,
        "tle_line1": "1 67018U 25293R   25358.25002315 -.01583516  00000+0 -92885-2 0  9998",
        "tle_line2": "2 67018  69.9919 290.4009 0003853 273.5060 140.3909 15.80947697  2074"
      },
      "geometry": {
        "type": "Point",
        "coordinates": [
          -48.58025100013595,
          47.00192777644026
        ]
      }
    },
    {
      "type": "Feature",
      "properties": {
        "norad_id": 67019,
        "name": "STARLINK-35688",
        "group": "last-30-days",
        "lat": 48.93169727685582,
        "lon": -46.866890631134424,
        "alt_km": 331.33628878810396,
        "timestamp": "2025-12-24T22:42:20.748437+00:00",
        "meta_object_name": "STARLINK-35688",
        "meta_object_id": "2025-293S",
        "meta_epoch": "2025-12-24T06:00:02.000160",
        "meta_mean_motion": 15.80944182,
        "meta_eccentricity": 0.00037386,
        "meta_inclination": 69.9918,
        "meta_ra_of_asc_node": 290.3981,
        "meta_arg_of_pericenter": 272.5053,
        "meta_mean_anomaly": 143.6658,
        "meta_ephemeris_type": 0,
        "meta_classification_type": "U",
        "meta_norad_cat_id": 67019,
        "meta_element_set_no": 999,
        "meta_rev_at_epoch": 215,
        "meta_bstar": -0.009355333,
        "meta_mean_motion_dot": -0.01593124,
        "meta_mean_motion_ddot": 0,
        "tle_line1": "1 67019U 25293S   25358.25002315 -.01593124  00000+0 -93553-2 0  9998",
        "tle_line2": "2 67019  69.9918 290.3981 0003738 272.5053 143.6658 15.80944182  2157"
      },
      "geometry": {
        "type": "Point",
        "coordinates": [
          -46.866890631134424,
          48.93169727685582
        ]
      }
    },
    {
      "type": "Feature",
      "properties": {
        "norad_id": 67020,
        "name": "STARLINK-36172",
        "group": "last-30-days",
        "lat": 51.205439820276354,
        "lon": -44.633727480488794,
        "alt_km": 331.12535545122046,
        "timestamp": "2025-12-24T22:42:20.748449+00:00",
        "meta_object_name": "STARLINK-36172",
        "meta_object_id": "2025-293T",
        "meta_epoch": "2025-12-24T06:00:02.000160",
        "meta_mean_motion": 15.80904532,
        "meta_eccentricity": 0.00039857,
        "meta_inclination": 69.9917,
        "meta_ra_of_asc_node": 290.3949,
        "meta_arg_of_pericenter": 277.8645,
        "meta_mean_anomaly": 141.0631,
        "meta_ephemeris_type": 0,
        "meta_classification_type": "U",
        "meta_norad_cat_id": 67020,
        "meta_element_set_no": 999,
        "meta_rev_at_epoch": 207,
        "meta_bstar": -0.0092978836,
        "meta_mean_motion_dot": -0.0158227,
        "meta_mean_motion_ddot": 0,
        "tle_line1": "1 67020U 25293T   25358.25002315 -.01582270  00000+0 -92979-2 0  9991",
        "tle_line2": "2 67020  69.9917 290.3949 0003985 277.8645 141.0631 15.80904532  2070"
      },
      "geometry": {
        "type": "Point",
        "coordinates": [
          -44.633727480488794,
          51.205439820276354
        ]
      }
    },
    {
      "type": "Feature",
      "properties": {
        "norad_id": 67021,
        "name": "STARLINK-36184",
        "group": "last-30-days",
        "lat": 53.27724710987249,
        "lon": -42.352845486633555,
        "alt_km": 330.947972731964,
        "timestamp": "2025-12-24T22:42:20.748459+00:00",
        "meta_object_name": "STARLINK-36184",
        "meta_object_id": "2025-293U",
        "meta_epoch": "2025-12-24T06:00:02.000160",
        "meta_mean_motion": 15.80881567,
        "meta_eccentricity": 0.00038762,
        "meta_inclination": 69.9919,
        "meta_ra_of_asc_node": 290.3919,
        "meta_arg_of_pericenter": 276.6425,
        "meta_mean_anomaly": 144.8374,
        "meta_ephemeris_type": 0,
        "meta_classification_type": "U",
        "meta_norad_cat_id": 67021,
        "meta_element_set_no": 999,
        "meta_rev_at_epoch": 207,
        "meta_bstar": -0.0092971527,
        "meta_mean_motion_dot": -0.0158057,
        "meta_mean_motion_ddot": 0,
        "tle_line1": "1 67021U 25293U   25358.25002315 -.01580570  00000+0 -92972-2 0  9996",
        "tle_line2": "2 67021  69.9919 290.3919 0003876 276.6425 144.8374 15.80881567  2079"
      },
      "geometry": {
        "type": "Point",
        "coordinates": [
          -42.352845486633555,
          53.27724710987249
        ]
      }
    },
    {
      "type": "Feature",
      "properties": {
        "norad_id": 67022,
        "name": "STARLINK-36209",
        "group": "last-30-days",
        "lat": 55.54313672542338,
        "lon": -39.518925865231985,
        "alt_km": 330.66700322054203,
        "timestamp": "2025-12-24T22:42:20.748469+00:00",
        "meta_object_name": "STARLINK-36209",
        "meta_object_id": "2025-293V",
        "meta_epoch": "2025-12-24T06:00:02.000160",
        "meta_mean_motion": 15.80859251,
        "meta_eccentricity": 0.00036495,
        "meta_inclination": 69.9916,
        "meta_ra_of_asc_node": 290.3884,
        "meta_arg_of_pericenter": 278.362,
        "meta_mean_anomaly": 146.0029,
        "meta_ephemeris_type": 0,
        "meta_classification_type": "U",
        "meta_norad_cat_id": 67022,
        "meta_element_set_no": 999,
        "meta_rev_at_epoch": 207,
        "meta_bstar": -0.0093984294,
        "meta_mean_motion_dot": -0.01593936,
        "meta_mean_motion_ddot": 0,
        "tle_line1": "1 67022U 25293V   25358.25002315 -.01593936  00000+0 -93984-2 0  9991",
        "tle_line2": "2 67022  69.9916 290.3884 0003649 278.3620 146.0029 15.80859251  2078"
      },
      "geometry": {
        "type": "Point",
        "coordinates": [
          -39.518925865231985,
          55.54313672542338
        ]
      }
    },
    {
      "type": "Feature",
      "properties": {
        "norad_id": 67023,
        "name": "STARLINK-36191",
        "group": "last-30-days",
        "lat": 57.440838164391366,
        "lon": -36.80102323899051,
        "alt_km": 330.73220113262323,
        "timestamp": "2025-12-24T22:42:20.748481+00:00",
        "meta_object_name": "STARLINK-36191",
        "meta_object_id": "2025-293W",
        "meta_epoch": "2025-12-24T06:00:02.000160",
        "meta_mean_motion": 15.80839388,
        "meta_eccentricity": 0.00038546,
        "meta_inclination": 69.9916,
        "meta_ra_of_asc_node": 290.3849,
        "meta_arg_of_pericenter": 275.5583,
        "meta_mean_anomaly": 151.2724,
        "meta_ephemeris_type": 0,
        "meta_classification_type": "U",
        "meta_norad_cat_id": 67023,
        "meta_element_set_no": 999,
        "meta_rev_at_epoch": 196,
        "meta_bstar": -0.0094014283,
        "meta_mean_motion_dot": -0.01593309,
        "meta_mean_motion_ddot": 0,
        "tle_line1": "1 67023U 25293W   25358.25002315 -.01593309  00000+0 -94014-2 0  9991",
        "tle_line2": "2 67023  69.9916 290.3849 0003854 275.5583 151.2724 15.80839388  1961"
      },
      "geometry": {
        "type": "Point",
        "coordinates": [
          -36.80102323899051,
          57.440838164391366
        ]
      }
    },
    {
      "type": "Feature",
      "properties": {
        "norad_id": 67024,
        "name": "STARLINK-36192",
        "group": "last-30-days",
        "lat": 59.450047442802166,
        "lon": -33.47651002090932,
        "alt_km": 330.5191088047359,
        "timestamp": "2025-12-24T22:42:20.748491+00:00",
        "meta_object_name": "STARLINK-36192",
        "meta_object_id": "2025-293X",
        "meta_epoch": "2025-12-24T06:00:02.000160",
        "meta_mean_motion": 15.80797654,
        "meta_eccentricity": 0.00037073,
        "meta_inclination": 69.9919,
        "meta_ra_of_asc_node": 290.3822,
        "meta_arg_of_pericenter": 275.0703,
        "meta_mean_anomaly": 154.4902,
        "meta_ephemeris_type": 0,
        "meta_classification_type": "U",
        "meta_norad_cat_id": 67024,
        "meta_element_set_no": 999,
        "meta_rev_at_epoch": 207,
        "meta_bstar": -0.0093210703,
        "meta_mean_motion_dot": -0.0157856,
        "meta_mean_motion_ddot": 0,
        "tle_line1": "1 67024U 25293X   25358.25002315 -.01578560  00000+0 -93211-2 0  9992",
        "tle_line2": "2 67024  69.9919 290.3822 0003707 275.0703 154.4902 15.80797654  2077"
      },
      "geometry": {
        "type": "Point",
        "coordinates": [
          -33.47651002090932,
          59.450047442802166
        ]
      }
    }
  ]
}